CUTE-1 (CO-55)          
1 27844U 03031E   26158.55367412  .00000343  00000+0  16747-3 0  9994
2 27844  98.6735 167.2337 0008903 206.8932 153.1787 14.24330103190300
CUBESAT XI-IV (CO-57)   
1 27848U 03031J   26158.53730253  .00000294  00000+0  14824-3 0  9992
2 27848  98.6767 166.9379 0008497 227.1745 132.8720 14.23615889190001
CUBESAT XI-V            
1 28895U 05043F   26158.68619350  .00001724  00000+0  27894-3 0  9990
2 28895  98.2976 314.1093 0013074 232.4490 127.5529 14.72607423100351
CUTE-1.7+APD II (CO-65) 
1 32785U 08021C   26158.83523824  .00006349  00000+0  40126-3 0  9990
2 32785  97.8271 140.0602 0010367  66.0931 294.1383 15.09362899983783
CANX-2                  
1 32790U 08021H   26158.45201647  .00003838  00000+0  27065-3 0  9997
2 32790  97.8632 138.0418 0012157  79.6970 280.5626 15.05546548983346
SEEDS II (CO-66)        
1 32791U 08021J   26157.55833225  .00023420  00000+0  75009-3 0  9991
2 32791  97.7518 154.9517 0002601  35.3933 324.7480 15.32385592985663
SWISSCUBE               
1 35932U 09051B   26158.72700363  .00001236  00000+0  25369-3 0  9996
2 35932  98.4042  66.4504 0005489 237.5295 122.5376 14.62464842887779
BEESAT-1                
1 35933U 09051C   26158.79997948  .00000965  00000+0  20355-3 0  9999
2 35933  98.3972  66.1796 0003901 254.4807 105.5963 14.61706043887814
ITUPSAT1                
1 35935U 09051E   26158.71414139  .00000936  00000+0  20322-3 0  9991
2 35935  98.4055  65.2944 0006073 269.4937  90.5567 14.60427457887357
TISAT 1                 
1 36799U 10035E   26158.57809433  .00021284  00000+0  70471-3 0  9992
2 36799  98.0703 104.2774 0000111 108.5192 251.6059 15.31343962866237
AEROCUBE 4.5A           
1 38767U 12048K   26157.10560387  .00391799  62769-4  14146-2 0  9997
2 38767  64.6266  67.2252 0019485 215.0043 144.9836 15.88053967370893
STRAND-1                
1 39090U 13009E   26158.72667345  .00000341  00000+0  12915-3 0  9994
2 39090  98.3920 339.1941 0007412 257.7879 102.2478 14.37157937695701
BRITE-AUSTRIA           
1 39091U 13009F   26158.73546881  .00000212  00000+0  86658-4 0  9990
2 39091  98.3993 338.4054 0008958 268.4216  91.5944 14.36538507695690
NEE-01 PEGASO           
1 39151U 13018B   26158.14984891  .00003603  00000+0  34660-3 0  9991
2 39151  98.1215 301.9695 0012393 190.8803 169.2150 14.93612333709204
POPACS 2                
1 39269U 13055E   26158.71430170  .00012643  00000+0  21568-3 0  9998
2 39269  80.9909 155.0345 0417126 224.2238 132.4940 14.90985736661809
POPACS 3                
1 39270U 13055F   26158.22388801  .00011557  00000+0  27206-3 0  9997
2 39270  81.0011 239.9862 0553011 100.3054 266.0944 14.55931826637103
ZACUBE-1 (TSHEPISOSAT)  
1 39417U 13066B   26158.80874128  .00004415  00000+0  34383-3 0  9997
2 39417  97.8096 121.0948 0039982 280.7328  78.9396 15.01130661679324
WNISAT-1                
1 39423U 13066H   26158.67205426  .00000858  00000+0  16526-3 0  9994
2 39423  97.7192 308.5043 0161674 261.8057  96.4779 14.58048418665344
TRITON-1                
1 39427U 13066M   26158.84114365  .00002566  00000+0  31168-3 0  9995
2 39427  97.8247  68.8606 0088308 264.8313  94.2817 14.81674243672705
GOMX-1                  
1 39430U 13066Q   26158.85703958  .00002697  00000+0  40744-3 0  9997
2 39430  97.6491 359.9082 0130112 107.1807 254.3691 14.69426675668544
CUBEBUG-2 (LO-74)       
1 39440U 13066AA  26158.75189183  .00005333  00000+0  49259-3 0  9995
2 39440  97.8907 107.6906 0059310  59.6684 301.0383 14.93689124675583
NEE-02 KRYSAOR          
1 39441U 13066AB  26158.78596263  .00002725  00000+0  30113-3 0  9991
2 39441  97.8886  98.0684 0067684 100.2958 260.5898 14.86579564674808
FUNCUBE-1 (AO-73)       
1 39444U 13066AE  26158.44422611  .00006890  00000+0  42956-3 0  9997
2 39444  97.8276 129.6877 0034678 234.9588 124.8385 15.09375076678197
UWE-3                   
1 39446U 13066AG  26157.65461373  .00005074  00000+0  43622-3 0  9993
2 39446  97.8693 113.6587 0049030 356.7161   3.3731 14.96941234676005
BRITE-CA1 (TORONTO)     
1 40020U 14033L   26158.32169916  .00000858  00000+0  13667-3 0  9992
2 40020  97.9728 287.4322 0077511 309.1415  50.2921 14.72663858640764
DUCHIFAT-1              
1 40021U 14033M   26158.67842588  .00098159  00000+0  10840-2 0  9994
2 40021  98.0456 216.5179 0004587 131.8907 228.2741 15.62727135654263
NANOSATC-BR1            
1 40024U 14033Q   26158.59969182  .00017112  00000+0  57076-3 0  9991
2 40024  98.0730 190.1402 0003389 190.3246 169.7924 15.31152057652511
QB50P1                  
1 40025U 14033R   26158.52731635  .00008742  00000+0  43186-3 0  9991
2 40025  98.0971 168.9970 0007105 254.5294 105.5153 15.18113251651562
QB50P2                  
1 40032U 14033Y   26158.72190377  .00007894  00000+0  42589-3 0  9996
2 40032  98.0757 155.0140 0007012 194.1636 165.9399 15.15039841651239
PERSEUS-M2              
1 40037U 14033AD  26158.76284661  .00002064  00000+0  19175-3 0  9994
2 40037  97.9977 109.1121 0011351 340.0510  20.0264 14.95488829649374
