OBJECT_NAME,OBJECT_ID,EPOCH,MEAN_MOTION,ECCENTRICITY,INCLINATION,RA_OF_ASC_NODE,ARG_OF_PERICENTER,MEAN_ANOMALY,EPHEMERIS_TYPE,CLASSIFICATION_TYPE,NORAD_CAT_ID,ELEMENT_SET_NO,REV_AT_EPOCH,BSTAR,MEAN_MOTION_DOT,MEAN_MOTION_DDOT
CUTE-1 (CO-55),2003-031E,2026-06-07T13:17:17.443968,14.24330103,.0008903,98.6735,167.2337,206.8932,153.1787,0,U,27844,999,19030,.16747E-3,.343E-5,0
CUBESAT XI-IV (CO-57),2003-031J,2026-06-07T12:53:42.938592,14.23615889,.0008497,98.6767,166.9379,227.1745,132.8720,0,U,27848,999,19000,.14824E-3,.294E-5,0
CUBESAT XI-V,2005-043F,2026-06-07T16:28:07.118400,14.72607423,.0013074,98.2976,314.1093,232.4490,127.5529,0,U,28895,999,10035,.27894E-3,.1724E-4,0
CUTE-1.7+APD II (CO-65),2008-021C,2026-06-07T20:02:44.583936,15.09362899,.0010367,97.8271,140.0602,66.0931,294.1383,0,U,32785,999,98378,.40126E-3,.6349E-4,0
CANX-2,2008-021H,2026-06-07T10:50:54.223008,15.05546548,.0012157,97.8632,138.0418,79.6970,280.5626,0,U,32790,999,98334,.27065E-3,.3838E-4,0
SEEDS II (CO-66),2008-021J,2026-06-06T13:23:59.906400,15.32385592,.00026017,97.7518,154.9517,35.3933,324.7480,0,U,32791,999,98566,.75009355E-3,.2342E-3,0
SWISSCUBE,2009-051B,2026-06-07T17:26:53.113632,14.62464842,.0005489,98.4042,66.4504,237.5295,122.5376,0,U,35932,999,88777,.25369E-3,.1236E-4,0
BEESAT-1,2009-051C,2026-06-07T19:11:58.227072,14.61706043,.0003901,98.3972,66.1796,254.4807,105.5963,0,U,35933,999,88781,.20355E-3,.965E-5,0
ITUPSAT1,2009-051E,2026-06-07T17:08:21.816096,14.60427457,.0006073,98.4055,65.2944,269.4937,90.5567,0,U,35935,999,88735,.20322E-3,.936E-5,0
TISAT 1,2010-035E,2026-06-07T13:52:27.350112,15.31343962,.0000111,98.0703,104.2774,108.5192,251.6059,0,U,36799,999,86623,.70471E-3,.21284E-3,0
AEROCUBE 4.5A,2012-048K,2026-06-06T02:32:04.174368,15.88053967,.00194857,64.6266,67.2252,215.0043,144.9836,0,U,38767,999,37089,.14146444E-2,.391799E-2,.62769086E-4
STRAND-1,2013-009E,2026-06-07T17:26:24.586080,14.37157937,.0007412,98.3920,339.1941,257.7879,102.2478,0,U,39090,999,69570,.12915E-3,.341E-5,0
BRITE-AUSTRIA,2013-009F,2026-06-07T17:39:04.505184,14.36538507,.0008958,98.3993,338.4054,268.4216,91.5944,0,U,39091,999,69569,.86658E-4,.212E-5,0
NEE-01 PEGASO,2013-018B,2026-06-07T03:35:46.945824,14.93612333,.0012393,98.1215,301.9695,190.8803,169.2150,0,U,39151,999,70920,.3466E-3,.3603E-4,0
POPACS 2,2013-055E,2026-06-07T17:08:35.666880,14.90985736,.0417126,80.9909,155.0345,224.2238,132.4940,0,U,39269,999,66180,.21568E-3,.12643E-3,0
POPACS 3,2013-055F,2026-06-07T05:22:23.924064,14.55931826,.0553011,81.0011,239.9862,100.3054,266.0944,0,U,39270,999,63710,.27206E-3,.11557E-3,0
ZACUBE-1 (TSHEPISOSAT),2013-066B,2026-06-07T19:24:35.246592,15.01130661,.0039982,97.8096,121.0948,280.7328,78.9396,0,U,39417,999,67932,.34383E-3,.4415E-4,0
WNISAT-1,2013-066H,2026-06-07T16:07:45.488064,14.58048418,.0161674,97.7192,308.5043,261.8057,96.4779,0,U,39423,999,66534,.16526E-3,.858E-5,0
TRITON-1,2013-066M,2026-06-07T20:11:14.811360,14.81674243,.0088308,97.8247,68.8606,264.8313,94.2817,0,U,39427,999,67270,.31168E-3,.2566E-4,0
GOMX-1,2013-066Q,2026-06-07T20:34:08.219712,14.69426675,.0130112,97.6491,359.9082,107.1807,254.3691,0,U,39430,999,66854,.40744E-3,.2697E-4,0
CUBEBUG-2 (LO-74),2013-066AA,2026-06-07T18:02:43.454112,14.93689124,.005931,97.8907,107.6906,59.6684,301.0383,0,U,39440,999,67558,.49259E-3,.5333E-4,0
NEE-02 KRYSAOR,2013-066AB,2026-06-07T18:51:47.171232,14.86579564,.0067684,97.8886,98.0684,100.2958,260.5898,0,U,39441,999,67480,.30113E-3,.2725E-4,0
FUNCUBE-1 (AO-73),2013-066AE,2026-06-07T10:39:41.135904,15.09375076,.0034678,97.8276,129.6877,234.9588,124.8385,0,U,39444,999,67819,.42956E-3,.689E-4,0
UWE-3,2013-066AG,2026-06-06T15:42:38.626272,14.96941234,.00490307,97.8693,113.6587,356.7161,3.3731,0,U,39446,999,67600,.43621535E-3,.5074E-4,0
BRITE-CA1 (TORONTO),2014-033L,2026-06-07T07:43:14.807424,14.72663858,.0077511,97.9728,287.4322,309.1415,50.2921,0,U,40020,999,64076,.13667E-3,.858E-5,0
DUCHIFAT-1,2014-033M,2026-06-07T16:16:55.996032,15.62727135,.0004587,98.0456,216.5179,131.8907,228.2741,0,U,40021,999,65426,.1084E-2,.98159E-3,0
NANOSATC-BR1,2014-033Q,2026-06-07T14:23:33.373248,15.31152057,.0003389,98.0730,190.1402,190.3246,169.7924,0,U,40024,999,65251,.57076E-3,.17112E-3,0
QB50P1,2014-033R,2026-06-07T12:39:20.132640,15.18113251,.0007105,98.0971,168.9970,254.5294,105.5153,0,U,40025,999,65156,.43186E-3,.8742E-4,0
QB50P2,2014-033Y,2026-06-07T17:19:32.485728,15.15039841,.0007012,98.0757,155.0140,194.1636,165.9399,0,U,40032,999,65123,.42589E-3,.7894E-4,0
PERSEUS-M2,2014-033AD,2026-06-07T18:18:29.947104,14.95488829,.0011351,97.9977,109.1121,340.0510,20.0264,0,U,40037,999,64937,.19175E-3,.2064E-4,0
